{"type": "FeatureCollection", "name": "canh_bao_sat_lo_QL6", "metadata": {"cap_nhat": "2026-10-11T05:23:40+07:00", "nguon": "Open-Meteo + mưa vệ tinh GSMaP/IMERG + tổ hợp 82 kịch bản (ecmwf_ifs025, gfs025)", "he_toa_do": "WGS84 (EPSG:4326)", "muc": {"0": "An toàn", "1": "Cần chú ý", "2": "Nguy hiểm", "3": "Đạt ngưỡng trượt"}, "trang": "https://chaulan1981.github.io/Du-bao-sat-truot-QL6/"}, "features": [{"type": "Feature", "geometry": {"type": "LineString", "coordinates": [[105.15808, 20.64987], [105.15643, 20.65055], [105.14679, 20.65505], [105.12909, 20.66702], [105.10917, 20.67393], [105.10021, 20.67812], [105.09103, 20.68015], [105.08415, 20.6815], [105.08045, 20.69125], [105.07907, 20.69888], [105.07499, 20.70194], [105.06903, 20.70666], [105.05707, 20.71924], [105.05301, 20.71491], [105.04851, 20.71309], [105.042, 20.71214], [105.03549, 20.71114], [105.02998, 20.7114], [105.00641, 20.71917], [104.99997, 20.71948], [104.99977, 20.71943]]}, "properties": {"loai": "khu_vuc", "id": "KV1", "tinh": "Phú Thọ", "km0": 116, "km1": 140, "muc": [1, 1, 1, 1], "muc_chu": ["Cần chú ý", "Cần chú ý", "Cần chú ý", "Cần chú ý"], "ngay": ["2026-10-11", "2026-10-12", "2026-10-13", "2026-10-14"], "xac_suat_dat_nguong": [0.0, 0.0, 0.0, 0.0], "he_so_an_toan_nho_nhat": [1.575, 1.576, 1.577, 1.578], "cap": "https://chaulan1981.github.io/Du-bao-sat-truot-QL6/data/cap/KV1.xml"}}, {"type": "Feature", "geometry": {"type": "LineString", "coordinates": [[103.65242, 21.50924], [103.65199, 21.50999], [103.64087, 21.52166], [103.63607, 21.52666], [103.63471, 21.53208], [103.62897, 21.53792], [103.61901, 21.53781], [103.61371, 21.53644], [103.60259, 21.53041], [103.59877, 21.53363], [103.58873, 21.53788], [103.58435, 21.54034], [103.58079, 21.54499], [103.57655, 21.5481], [103.57126, 21.54994], [103.56507, 21.54766], [103.56294, 21.54859]]}, "properties": {"loai": "khu_vuc", "id": "KV2", "tinh": "Sơn La", "km0": 330, "km1": 345, "muc": [0, 0, 0, 0], "muc_chu": ["An toàn", "An toàn", "An toàn", "An toàn"], "ngay": ["2026-10-11", "2026-10-12", "2026-10-13", "2026-10-14"], "xac_suat_dat_nguong": [0.0, 0.0, 0.0, 0.0], "he_so_an_toan_nho_nhat": [1.575, 1.575, 1.576, 1.576], "cap": "https://chaulan1981.github.io/Du-bao-sat-truot-QL6/data/cap/KV2.xml"}}, {"type": "Feature", "geometry": {"type": "LineString", "coordinates": [[103.34053, 21.74848], [103.33711, 21.75265], [103.3321, 21.75871], [103.32972, 21.76344], [103.32807, 21.77457], [103.32629, 21.77962], [103.32193, 21.78716], [103.31851, 21.79138], [103.30236, 21.80463], [103.30234, 21.80524]]}, "properties": {"loai": "khu_vuc", "id": "KV3", "tinh": "Điện Biên", "km0": 405, "km1": 416, "muc": [0, 0, 0, 0], "muc_chu": ["An toàn", "An toàn", "An toàn", "An toàn"], "ngay": ["2026-10-11", "2026-10-12", "2026-10-13", "2026-10-14"], "xac_suat_dat_nguong": [0.0, 0.0, 0.0, 0.0], "he_so_an_toan_nho_nhat": [1.609, 1.61, 1.611, 1.612], "cap": "https://chaulan1981.github.io/Du-bao-sat-truot-QL6/data/cap/KV3.xml"}}, {"type": "Feature", "geometry": {"type": "Point", "coordinates": [105.15808, 20.64987]}, "properties": {"loai": "diem", "id": "KV1-Km116", "kv": "KV1", "km": 116, "ngay": ["2026-10-11", "2026-10-12", "2026-10-13", "2026-10-14"], "muc": [0, 0, 0, 0], "mua_mm": [0, 0.1, 0.4, 0.6], "nguong_mm": [119.3, 119.4, 119.4, 119.6], "xac_suat_dat_nguong": [0.0, 0.0, 0.0, 0.0], "he_so_an_toan": [2.469, 2.47, 2.471, 2.472], "xac_suat_FS_nho_hon_1": [0.0, 0.0, 0.0, 0.0], "do_doc": 18.6}}, {"type": "Feature", "geometry": {"type": "Point", "coordinates": [105.13973, 20.65982]}, "properties": {"loai": "diem", "id": "KV1-Km119", "kv": "KV1", "km": 119, "ngay": ["2026-10-11", "2026-10-12", "2026-10-13", "2026-10-14"], "muc": [0, 0, 0, 0], "mua_mm": [0, 0.1, 0.4, 0.6], "nguong_mm": [119.3, 119.4, 119.4, 119.6], "xac_suat_dat_nguong": [0.0, 0.0, 0.0, 0.0], "he_so_an_toan": [1.727, 1.73, 1.732, 1.734], "xac_suat_FS_nho_hon_1": [0.0, 0.0, 0.0, 0.0], "do_doc": 45.4}}, {"type": "Feature", "geometry": {"type": "Point", "coordinates": [105.11942, 20.67038]}, "properties": {"loai": "diem", "id": "KV1-Km122", "kv": "KV1", "km": 122, "ngay": ["2026-10-11", "2026-10-12", "2026-10-13", "2026-10-14"], "muc": [0, 0, 0, 0], "mua_mm": [0, 0.4, 1.1, 1.6], "nguong_mm": [119.2, 119.3, 119.4, 119.5], "xac_suat_dat_nguong": [0.0, 0.0, 0.0, 0.0], "he_so_an_toan": [1.798, 1.799, 1.8, 1.801], "xac_suat_FS_nho_hon_1": [0.0, 0.0, 0.0, 0.0], "do_doc": 27.4}}, {"type": "Feature", "geometry": {"type": "Point", "coordinates": [105.09741, 20.67874]}, "properties": {"loai": "diem", "id": "KV1-Km125", "kv": "KV1", "km": 125, "ngay": ["2026-10-11", "2026-10-12", "2026-10-13", "2026-10-14"], "muc": [0, 0, 0, 0], "mua_mm": [0, 0.4, 1.1, 1.6], "nguong_mm": [120.0, 120.2, 120.3, 120.3], "xac_suat_dat_nguong": [0.0, 0.0, 0.0, 0.0], "he_so_an_toan": [1.575, 1.576, 1.577, 1.578], "xac_suat_FS_nho_hon_1": [0.0, 0.0, 0.0, 0.0], "do_doc": 35.9}}, {"type": "Feature", "geometry": {"type": "Point", "coordinates": [105.08038, 20.69164]}, "properties": {"loai": "diem", "id": "KV1-Km128", "kv": "KV1", "km": 128, "ngay": ["2026-10-11", "2026-10-12", "2026-10-13", "2026-10-14"], "muc": [0, 0, 0, 0], "mua_mm": [0, 0, 0.3, 1.0], "nguong_mm": [120.2, 120.3, 120.4, 120.5], "xac_suat_dat_nguong": [0.0, 0.0, 0.0, 0.0], "he_so_an_toan": [1.62, 1.622, 1.624, 1.625], "xac_suat_FS_nho_hon_1": [0.0, 0.0, 0.0, 0.0], "do_doc": 42.6}}, {"type": "Feature", "geometry": {"type": "Point", "coordinates": [105.06625, 20.70959]}, "properties": {"loai": "diem", "id": "KV1-Km131", "kv": "KV1", "km": 131, "ngay": ["2026-10-11", "2026-10-12", "2026-10-13", "2026-10-14"], "muc": [0, 0, 0, 0], "mua_mm": [0, 0, 0.3, 1.0], "nguong_mm": [121.4, 121.5, 121.6, 121.9], "xac_suat_dat_nguong": [0.0, 0.0, 0.0, 0.0], "he_so_an_toan": [1.627, 1.629, 1.631, 1.632], "xac_suat_FS_nho_hon_1": [0.0, 0.0, 0.0, 0.0], "do_doc": 42.8}}, {"type": "Feature", "geometry": {"type": "Point", "coordinates": [105.04831, 20.71306]}, "properties": {"loai": "diem", "id": "KV1-Km134", "kv": "KV1", "km": 134, "ngay": ["2026-10-11", "2026-10-12", "2026-10-13", "2026-10-14"], "muc": [0, 0, 0, 0], "mua_mm": [0, 0, 0.3, 1.0], "nguong_mm": [121.4, 121.5, 121.6, 121.9], "xac_suat_dat_nguong": [0.0, 0.0, 0.0, 0.0], "he_so_an_toan": [1.813, 1.814, 1.815, 1.815], "xac_suat_FS_nho_hon_1": [0.0, 0.0, 0.0, 0.0], "do_doc": 27.1}}, {"type": "Feature", "geometry": {"type": "Point", "coordinates": [105.02378, 20.71344]}, "properties": {"loai": "diem", "id": "KV1-Km137", "kv": "KV1", "km": 137, "ngay": ["2026-10-11", "2026-10-12", "2026-10-13", "2026-10-14"], "muc": [0, 0, 0, 0], "mua_mm": [0, 0, 0.8, 1.2], "nguong_mm": [121.3, 121.4, 121.4, 121.7], "xac_suat_dat_nguong": [0.0, 0.0, 0.0, 0.0], "he_so_an_toan": [1.577, 1.578, 1.579, 1.58], "xac_suat_FS_nho_hon_1": [0.0, 0.0, 0.0, 0.0], "do_doc": 40.1}}, {"type": "Feature", "geometry": {"type": "Point", "coordinates": [104.99977, 20.71943]}, "properties": {"loai": "diem", "id": "KV1-Km140", "kv": "KV1", "km": 140, "ngay": ["2026-10-11", "2026-10-12", "2026-10-13", "2026-10-14"], "muc": [0, 0, 0, 0], "mua_mm": [0, 0, 0.8, 1.2], "nguong_mm": [118.8, 119.2, 119.6, 120.5], "xac_suat_dat_nguong": [0.0, 0.0, 0.0, 0.0], "he_so_an_toan": [1.601, 1.602, 1.603, 1.604], "xac_suat_FS_nho_hon_1": [0.0, 0.0, 0.0, 0.0], "do_doc": 33.9}}, {"type": "Feature", "geometry": {"type": "Point", "coordinates": [103.65242, 21.50924]}, "properties": {"loai": "diem", "id": "KV2-Km330", "kv": "KV2", "km": 330, "ngay": ["2026-10-11", "2026-10-12", "2026-10-13", "2026-10-14"], "muc": [0, 0, 0, 0], "mua_mm": [0, 0, 0.4, 0.4], "nguong_mm": [123.4, 123.6, 123.8, 124.0], "xac_suat_dat_nguong": [0.0, 0.0, 0.0, 0.0], "he_so_an_toan": [2.512, 2.513, 2.513, 2.514], "xac_suat_FS_nho_hon_1": [0.0, 0.0, 0.0, 0.0], "do_doc": 18.3}}, {"type": "Feature", "geometry": {"type": "Point", "coordinates": [103.6373, 21.52538]}, "properties": {"loai": "diem", "id": "KV2-Km333", "kv": "KV2", "km": 333, "ngay": ["2026-10-11", "2026-10-12", "2026-10-13", "2026-10-14"], "muc": [0, 0, 0, 0], "mua_mm": [0, 0, 0.1, 0.5], "nguong_mm": [124.3, 124.5, 124.8, 124.9], "xac_suat_dat_nguong": [0.0, 0.0, 0.0, 0.0], "he_so_an_toan": [2.338, 2.338, 2.338, 2.339], "xac_suat_FS_nho_hon_1": [0.0, 0.0, 0.0, 0.0], "do_doc": 19.7}}, {"type": "Feature", "geometry": {"type": "Point", "coordinates": [103.62227, 21.53785]}, "properties": {"loai": "diem", "id": "KV2-Km336", "kv": "KV2", "km": 336, "ngay": ["2026-10-11", "2026-10-12", "2026-10-13", "2026-10-14"], "muc": [0, 0, 0, 0], "mua_mm": [0, 0, 0.1, 0.5], "nguong_mm": [124.3, 124.5, 124.8, 124.9], "xac_suat_dat_nguong": [0.0, 0.0, 0.0, 0.0], "he_so_an_toan": [1.575, 1.575, 1.576, 1.576], "xac_suat_FS_nho_hon_1": [0.0, 0.0, 0.0, 0.0], "do_doc": 36.6}}, {"type": "Feature", "geometry": {"type": "Point", "coordinates": [103.60155, 21.53129]}, "properties": {"loai": "diem", "id": "KV2-Km339", "kv": "KV2", "km": 339, "ngay": ["2026-10-11", "2026-10-12", "2026-10-13", "2026-10-14"], "muc": [0, 0, 0, 0], "mua_mm": [0, 0, 0.1, 0.5], "nguong_mm": [124.3, 124.5, 124.8, 124.9], "xac_suat_dat_nguong": [0.0, 0.0, 0.0, 0.0], "he_so_an_toan": [1.588, 1.588, 1.589, 1.59], "xac_suat_FS_nho_hon_1": [0.0, 0.0, 0.0, 0.0], "do_doc": 40.6}}, {"type": "Feature", "geometry": {"type": "Point", "coordinates": [103.58252, 21.54273]}, "properties": {"loai": "diem", "id": "KV2-Km342", "kv": "KV2", "km": 342, "ngay": ["2026-10-11", "2026-10-12", "2026-10-13", "2026-10-14"], "muc": [0, 0, 0, 0], "mua_mm": [0.5, 0, 0.9, 0.8], "nguong_mm": [122.1, 122.1, 122.2, 122.2], "xac_suat_dat_nguong": [0.0, 0.0, 0.0, 0.0], "he_so_an_toan": [1.725, 1.725, 1.726, 1.726], "xac_suat_FS_nho_hon_1": [0.0, 0.0, 0.0, 0.0], "do_doc": 29.3}}, {"type": "Feature", "geometry": {"type": "Point", "coordinates": [103.56294, 21.54859]}, "properties": {"loai": "diem", "id": "KV2-Km345", "kv": "KV2", "km": 345, "ngay": ["2026-10-11", "2026-10-12", "2026-10-13", "2026-10-14"], "muc": [0, 0, 0, 0], "mua_mm": [0.5, 0, 0.9, 0.8], "nguong_mm": [122.1, 122.1, 122.2, 122.2], "xac_suat_dat_nguong": [0.0, 0.0, 0.0, 0.0], "he_so_an_toan": [1.654, 1.655, 1.655, 1.656], "xac_suat_FS_nho_hon_1": [0.0, 0.0, 0.0, 0.0], "do_doc": 31.6}}, {"type": "Feature", "geometry": {"type": "Point", "coordinates": [103.34053, 21.74848]}, "properties": {"loai": "diem", "id": "KV3-Km405", "kv": "KV3", "km": 405, "ngay": ["2026-10-11", "2026-10-12", "2026-10-13", "2026-10-14"], "muc": [0, 0, 0, 0], "mua_mm": [0, 0, 0.2, 0.1], "nguong_mm": [118.8, 118.9, 118.9, 119.1], "xac_suat_dat_nguong": [0.0, 0.0, 0.0, 0.0], "he_so_an_toan": [1.623, 1.624, 1.625, 1.626], "xac_suat_FS_nho_hon_1": [0.0, 0.0, 0.0, 0.0], "do_doc": 32.8}}, {"type": "Feature", "geometry": {"type": "Point", "coordinates": [103.32961, 21.76417]}, "properties": {"loai": "diem", "id": "KV3-Km408", "kv": "KV3", "km": 408, "ngay": ["2026-10-11", "2026-10-12", "2026-10-13", "2026-10-14"], "muc": [0, 0, 0, 0], "mua_mm": [0, 0, 0.2, 0.1], "nguong_mm": [118.8, 118.9, 118.9, 119.1], "xac_suat_dat_nguong": [0.0, 0.0, 0.0, 0.0], "he_so_an_toan": [1.609, 1.61, 1.611, 1.612], "xac_suat_FS_nho_hon_1": [0.0, 0.0, 0.0, 0.0], "do_doc": 33.5}}, {"type": "Feature", "geometry": {"type": "Point", "coordinates": [103.32474, 21.7823]}, "properties": {"loai": "diem", "id": "KV3-Km411", "kv": "KV3", "km": 411, "ngay": ["2026-10-11", "2026-10-12", "2026-10-13", "2026-10-14"], "muc": [0, 0, 0, 0], "mua_mm": [0, 0, 0, 0], "nguong_mm": [118.8, 118.9, 119.0, 119.1], "xac_suat_dat_nguong": [0.0, 0.0, 0.0, 0.0], "he_so_an_toan": [1.95, 1.951, 1.952, 1.953], "xac_suat_FS_nho_hon_1": [0.0, 0.0, 0.0, 0.0], "do_doc": 24.5}}, {"type": "Feature", "geometry": {"type": "Point", "coordinates": [103.31201, 21.79671]}, "properties": {"loai": "diem", "id": "KV3-Km414", "kv": "KV3", "km": 414, "ngay": ["2026-10-11", "2026-10-12", "2026-10-13", "2026-10-14"], "muc": [0, 0, 0, 0], "mua_mm": [0, 0, 0, 0], "nguong_mm": [118.8, 118.9, 118.9, 119.2], "xac_suat_dat_nguong": [0.0, 0.0, 0.0, 0.0], "he_so_an_toan": [2.078, 2.079, 2.08, 2.08], "xac_suat_FS_nho_hon_1": [0.0, 0.0, 0.0, 0.0], "do_doc": 22.6}}, {"type": "Feature", "geometry": {"type": "Point", "coordinates": [105.14274, 20.66]}, "properties": {"loai": "diem", "id": "Km118+700 Đá Trắng (đá rơi 17/5/2026)", "kv": "KV1", "km": 118.7, "ngay": ["2026-10-11", "2026-10-12", "2026-10-13", "2026-10-14"], "muc": [1, 1, 1, 1], "mua_mm": [0, 0.1, 0.4, 0.6], "nguong_mm": [119.3, 119.4, 119.4, 119.6], "xac_suat_dat_nguong": [0.0, 0.0, 0.0, 0.0], "he_so_an_toan": [null, null, null, null], "xac_suat_FS_nho_hon_1": [null, null, null, null], "do_doc": null}}, {"type": "Feature", "geometry": {"type": "Point", "coordinates": [105.10618, 20.67272]}, "properties": {"loai": "diem", "id": "Km123+600 (trượt theo lớp)", "kv": "KV1", "km": 123.6, "ngay": ["2026-10-11", "2026-10-12", "2026-10-13", "2026-10-14"], "muc": [1, 1, 1, 1], "mua_mm": [0, 0.4, 1.1, 1.6], "nguong_mm": [119.2, 119.3, 119.4, 119.5], "xac_suat_dat_nguong": [0.0, 0.0, 0.0, 0.0], "he_so_an_toan": [null, null, null, null], "xac_suat_FS_nho_hon_1": [null, null, null, null], "do_doc": null}}, {"type": "Feature", "geometry": {"type": "Point", "coordinates": [105.1033, 20.6777]}, "properties": {"loai": "diem", "id": "Km124+300 (khối trượt 14/12/2025)", "kv": "KV1", "km": 124.3, "ngay": ["2026-10-11", "2026-10-12", "2026-10-13", "2026-10-14"], "muc": [1, 1, 1, 1], "mua_mm": [0, 0.4, 1.1, 1.6], "nguong_mm": [119.2, 119.3, 119.4, 119.5], "xac_suat_dat_nguong": [0.0, 0.0, 0.0, 0.0], "he_so_an_toan": [null, null, null, null], "xac_suat_FS_nho_hon_1": [null, null, null, null], "do_doc": null}}]}