{"type": "FeatureCollection", "name": "QL6_tim_duong_GRIP4", "features": [{"type": "Feature", "geometry": {"type": "MultiLineString", "coordinates": [[[105.07711192146992, 20.693523695603115], [105.07797165457623, 20.696529597777396], [105.07832838266049, 20.698210678874542], [105.07819906872993, 20.699900678173798], [105.08032160083137, 20.700342129178086], [105.080959252282, 20.6997089368285], [105.08106181160623, 20.69664999350583], [105.08088790666518, 20.695878569023584], [105.0816593311474, 20.693582131981067], [105.08063819700615, 20.691441763475414], [105.08078088823987, 20.690371579222585], [105.0820517320401, 20.688668202620168], [105.082207800577, 20.68820891521167], [105.08170838125899, 20.687598018367346], [105.07881493110445, 20.687489463442674]], [[105.08069653137092, 20.682531394551937], [105.08484188826574, 20.67860586167142]], [[105.08870579960175, 20.677847687400938], [105.09098777055122, 20.679678654896424], [105.09311922085475, 20.68072208454293], [105.09426966892656, 20.681167994648273], [105.09510041763085, 20.682024006618068]], [[105.09830666272404, 20.681314991035336], [105.09768088123242, 20.680820184766105], [105.09781019516299, 20.67959839107746], [105.09810895493355, 20.67806000121402], [105.09859053784733, 20.67774786414028], [105.09990151355704, 20.67788163717189], [105.10136855780362, 20.678479156713045], [105.10201958655745, 20.678470238510936], [105.10266169710916, 20.67785042346451], [105.1028088474439, 20.677078998982257], [105.10197945464797, 20.676022192032598], [105.10212214588167, 20.67525076755035], [105.1027597973323, 20.674332192733342], [105.10420008697258, 20.673391322411064], [105.10856108780285, 20.671647813899174], [105.1116200311255, 20.670238737966276], [105.11583834072208, 20.670029160216764], [105.11698878879386, 20.67031900178524], [105.11945021257534, 20.67183063704236], [105.12116955739485, 20.6726470991455]], [[105.12267823488585, 20.672123736649045], [105.12477883833425, 20.670078210328352], [105.125260421248, 20.66931124494716], [105.12670071088826, 20.668370374624885], [105.13173949507865, 20.668160796875377], [105.13254213326827, 20.66738045419102], [105.1323593101251, 20.66692116678252], [105.13202041844501, 20.6653515632117], [105.13247078765143, 20.66494132591479], [105.13290777955464, 20.664941325914782], [105.13392891369588, 20.66591786904548], [105.13510165727294, 20.6660694784813], [105.13627885995105, 20.664981457824265], [105.13672922915747, 20.66416098323043], [105.13660883342901, 20.66210087854374], [105.13705920263541, 20.661151090019356], [105.13853962418519, 20.65992929633071], [105.14044811943606, 20.65939866330535], [105.14088957044034, 20.659001803311593], [105.141781390651, 20.65886803027999], [105.1427980656912, 20.659568109145376], [105.14352935826396, 20.659438795214825], [105.14426956903885, 20.658761011854708], [105.14456832880941, 20.658078769393526], [105.1442918645441, 20.656558215934304], [105.14459062431467, 20.655880432574175], [105.14904080716603, 20.652090196678753], [105.15007085950938, 20.65183156881766], [105.15329924867206, 20.651729009493422], [105.15580080436304, 20.650930830404853], [105.16021977350704, 20.648647770665487], [105.16058222951328, 20.648529243149216]], [[105.05574145052647, 20.72158972182536], [105.05678200637023, 20.719922041903768], [105.05835160994104, 20.71698795341061], [105.06123218922156, 20.71449977502278], [105.06429113254426, 20.71277856201615], [105.06731886215954, 20.709840014421932], [105.06875023359767, 20.707828959846825], [105.06986946796209, 20.70688808952455], [105.07357944003859, 20.705157958315816], [105.07468975620085, 20.703931705526113], [105.0777219449172, 20.700208356146486], [105.07819906872993, 20.699900678173798]]]}, "properties": {"kv": "KV1", "tinh": "Phú Thọ", "km0": 116, "km1": 140, "nguon": "GRIP4 (gồm OpenStreetMap), đơn giản hóa 10 m"}}, {"type": "Feature", "geometry": {"type": "MultiLineString", "coordinates": [[[103.65413676284986, 21.507109306086942], [103.6539086830467, 21.507559815580237], [103.65307037204862, 21.508242058041407], [103.65180844645049, 21.509040237129987], [103.6501897927681, 21.51056079058921], [103.64886989885629, 21.512629813478007], [103.6479780786456, 21.513601897507655], [103.64415216994173, 21.516638545325055], [103.64149900481493, 21.519808966174057], [103.64106201291169, 21.52021920347097], [103.64003196056834, 21.520638358969993], [103.63885029878918, 21.522020680296563], [103.6385604572207, 21.523260310389425], [103.63842222508805, 21.52436170834963], [103.6372405633089, 21.526020493941502], [103.63695072174042, 21.52671165460479], [103.63473900761792, 21.528637986259877], [103.63473900761791, 21.52904822355679], [103.63489953525583, 21.52988207545378], [103.63550151389805, 21.531398169811958], [103.63535882266433, 21.532637799904816], [103.63506898109587, 21.533471651801808], [103.63551935030227, 21.53456859066096], [103.63596080130657, 21.53469790459151], [103.6359622078967, 21.534806915763653]], [[103.63505199547262, 21.535733027517256], [103.62694895807756, 21.53871109553961], [103.62665019830696, 21.538992018905976], [103.62472832575291, 21.539268483171284], [103.6229491444326, 21.538309776444795], [103.62161141411656, 21.537199460282498], [103.62085782603853, 21.536931914219284], [103.61894041258556, 21.53707014635195], [103.6165681708251, 21.537351069718305], [103.6156808097155, 21.53707014635195], [103.61464183917002, 21.536387903890766], [103.6143297020963, 21.53514827379791], [103.61388825109199, 21.534729118298884], [103.61225176100538, 21.534318881001965], [103.61151155023052, 21.533908643705058], [103.61002221047866, 21.532258776315267], [103.60839017949309, 21.53142938351933], [103.60616062896639, 21.53101914622242], [103.6054204181915, 21.5306089089255], [103.6049700489851, 21.529641283996902], [103.60422092000813, 21.52923104669999], [103.60215189711933, 21.52936927883264], [103.60126007690863, 21.528678118169356], [103.60051986613377, 21.528678118169356], [103.60036825669795, 21.528959041535725], [103.6006803937717, 21.53171922508781], [103.60142060454659, 21.5317103068857], [103.60157221398241, 21.53199123025207], [103.60142952274867, 21.532401467548986], [103.60009179243264, 21.53253969968164], [103.59965034142834, 21.532958855180667], [103.59758131853957, 21.53310154641438], [103.59684110776466, 21.53336909247759], [103.59491923521063, 21.534889645936804], [103.59492815341274, 21.535438115366382], [103.59536960441703, 21.536129276029666], [103.59523137228439, 21.53641019939604], [103.5944911615095, 21.536682204560293], [103.59166855054266, 21.535999962099115], [103.59107994920362, 21.53654843152869], [103.59049134786456, 21.537239592191973], [103.58989828742446, 21.53723959219197], [103.58944791821806, 21.537658747690998], [103.58946129552125, 21.538211676221632], [103.58901984451693, 21.53847922228483], [103.58768211420092, 21.53834990835428], [103.58708905376078, 21.538898377783863], [103.5867992121923, 21.53930861508077], [103.58517164030779, 21.53958953844713], [103.5834013771896, 21.54152032920328], [103.5820681059746, 21.542487954131882], [103.58192987384196, 21.543040882662506], [103.58222863361253, 21.543589352092074], [103.58193879204406, 21.544137821521655], [103.58119858126918, 21.544561436121732], [103.58060997993012, 21.545520142848222], [103.57942831815096, 21.546759772941076], [103.57838934760551, 21.546759772941076], [103.57794789660122, 21.546349535644172], [103.57750198649588, 21.546349535644165], [103.57307855825087, 21.549800879859536], [103.57159813670114, 21.550349349289107], [103.57115222659577, 21.550081803225897], [103.57115222659577, 21.54952887469527], [103.57084900772414, 21.549247951328898], [103.56788816462468, 21.550500958724925], [103.5674511727214, 21.55022003535855], [103.56714795384977, 21.549671565928985], [103.56610898330432, 21.548980405265695], [103.56581022353375, 21.54843193583613], [103.5659484556664, 21.547468770008578], [103.56549808646001, 21.546639377212635], [103.56475787568513, 21.54663937721264], [103.56371890513968, 21.545537979252444], [103.56357175480491, 21.545671752284044], [103.56326853593328, 21.54567175228404], [103.56313030380062, 21.545948216549352], [103.56328191323644, 21.54704961450955], [103.56239901122787, 21.54815993067187], [103.56239901122788, 21.548570167968784], [103.56210916965938, 21.548980405265695], [103.56165880045299, 21.549118637398347], [103.56091858967811, 21.548851091335145], [103.56011458004926, 21.54914896450815]]]}, "properties": {"kv": "KV2", "tinh": "Sơn La", "km0": 330, "km1": 345, "nguon": "GRIP4 (gồm OpenStreetMap), đơn giản hóa 10 m"}}, {"type": "Feature", "geometry": {"type": "LineString", "coordinates": [[103.34269525979963, 21.746715412152483], [103.34204807357077, 21.7476913255104], [103.34136137200856, 21.74782063944096], [103.34025105584622, 21.748828396279034], [103.33873050238701, 21.74906918773592], [103.33789219138896, 21.74983169401606], [103.3369201073593, 21.75123185174684], [103.33580979119701, 21.75249823644602], [103.335390635698, 21.75352828878937], [103.33538171749586, 21.753911771479967], [103.3360684190581, 21.75494182382331], [103.33551103142644, 21.75583810313505], [103.3342580240304, 21.757108946935283], [103.33329039910183, 21.757220424461618], [103.33300947573547, 21.757349738392172], [103.33300055753335, 21.759788866668412], [103.3321711647374, 21.760551372948544], [103.33147108587201, 21.760801082607543], [103.33119016250564, 21.76118010619707], [103.33115894879825, 21.761608179898207], [103.3307710070066, 21.762201240338317], [103.33118124430354, 21.76271849606052], [103.33188132316891, 21.76284780999107], [103.33214886923211, 21.762981583022672], [103.33214886923213, 21.76336952481432], [103.3296517726422, 21.765269101863094], [103.32937084927582, 21.765911212414785], [103.32867077041043, 21.767048283183414], [103.32880008434101, 21.768212108558366], [103.3281089236777, 21.7688408418069], [103.3281089236777, 21.769358097529103], [103.32879116613887, 21.770771632563033], [103.32851024277251, 21.771030260424133], [103.32835863333669, 21.772439336357035], [103.32793947783766, 21.774098121948903], [103.32778786840186, 21.776791418985198], [103.32749802683338, 21.778459122779182], [103.326797947968, 21.779087856027715], [103.32611124640576, 21.779208251756152], [103.32542008574246, 21.77882030996451], [103.3247289250792, 21.778940705692953], [103.3243097695802, 21.779712130175195], [103.32360969071478, 21.781620625426076], [103.32220953298399, 21.784171231228644], [103.32191969141552, 21.787248010955526], [103.32121961255012, 21.787751889374555], [103.32011821458994, 21.787609198140853], [103.3199799824573, 21.787738512071403], [103.31969905909092, 21.787738512071403], [103.31927990359188, 21.788251308692548], [103.31941813572453, 21.788630332282093], [103.32025198762155, 21.789410674966444], [103.32010929638784, 21.789539988896994], [103.32010929638784, 21.7897986167581], [103.31982837302147, 21.79018209944869], [103.31705035306516, 21.792460700087], [103.31467811130473, 21.794997928586415], [103.3125912520117, 21.79791863977642], [103.30995146418807, 21.800331013446332], [103.30884114802576, 21.800830432764318], [103.30688806176435, 21.802988637674186], [103.30592043683575, 21.803488056992176], [103.30522035797038, 21.804500272931307], [103.30481012067344, 21.804500272931307], [103.30426165124386, 21.80399193541122], [103.30328956721422, 21.803470220587958], [103.30204101891928, 21.804611750457642], [103.30162186342024, 21.80549911156728], [103.30299080744363, 21.80690818750017], [103.30289575235135, 21.807849830125118]]}, "properties": {"kv": "KV3", "tinh": "Điện Biên", "km0": 405, "km1": 416, "nguon": "GRIP4 (gồm OpenStreetMap), đơn giản hóa 10 m"}}]}